IRIDIUM 166             
1 43570U 18061B   25105.89308474 -.00000039  00000+0 -21101-4 0  9993
2 43570  86.3978 235.2438 0002024 103.9664 256.1757 14.34217249352152
IRIDIUM 158             
1 43571U 18061C   25105.86136973  .00000509  00000+0  17485-3 0  9993
2 43571  86.3978 235.2680 0002195  88.5890 271.5557 14.34213047352117
IRIDIUM 165             
1 43572U 18061D   25105.88674100  .00000341  00000+0  11484-3 0  9992
2 43572  86.3980 235.2937 0002318 100.9637 259.1819 14.34218536352145
IRIDIUM 155             
1 43573U 18061E   25105.84868606 -.00000001  00000+0 -75208-5 0  9996
2 43573  86.3977 235.2005 0001770  97.3124 262.8273 14.34217501352101
IRIDIUM 154             
1 43574U 18061F   25105.82965904  .00000093  00000+0  26210-4 0  9991
2 43574  86.3979 235.3203 0002221  95.5327 264.6123 14.34217827352152
IRIDIUM 163             
1 43575U 18061G   25105.88039870  .00000238  00000+0  77823-4 0  9999
2 43575  86.3979 235.2282 0002128  91.7436 268.4004 14.34216843352139
IRIDIUM 156             
1 43576U 18061H   25105.85502792  .00000579  00000+0  19978-3 0  9999
2 43576  86.3977 235.2455 0001848 101.3847 258.7556 14.34218853352128
IRIDIUM 164             
1 43577U 18061J   25105.90577062  .00000079  00000+0  21210-4 0  9996
2 43577  86.3979 235.2577 0002300 100.9872 259.1583 14.34217720352175
